{
  "type": "FeatureCollection",
  "features": [
    {
      "type": "Feature",
      "properties": {
        "norad_id": 33412,
        "name": "COSMO-SKYMED 3",
        "group": "resource",
        "lat": -51.14171964386632,
        "lon": -156.6115806422412,
        "alt_km": 563.3687615322378,
        "timestamp": "2025-12-09T04:51:47.164196+00:00",
        "meta_object_name": "COSMO-SKYMED 3",
        "meta_object_id": "2008-054A",
        "meta_epoch": "2025-12-08T21:07:00.115680",
        "meta_mean_motion": 15.05297904,
        "meta_eccentricity": 0.0015806,
        "meta_inclination": 97.8452,
        "meta_ra_of_asc_node": 193.2067,
        "meta_arg_of_pericenter": 187.0932,
        "meta_mean_anomaly": 173.0073,
        "meta_ephemeris_type": 0,
        "meta_classification_type": "U",
        "meta_norad_cat_id": 33412,
        "meta_element_set_no": 999,
        "meta_rev_at_epoch": 92829,
        "meta_bstar": 0.00062148,
        "meta_mean_motion_dot": 8.854e-05,
        "meta_mean_motion_ddot": 0,
        "tle_line1": "1 33412U 08054A   25342.87986245  .00008854  00000+0  62148-3 0  9993",
        "tle_line2": "2 33412  97.8452 193.2067 0015806 187.0932 173.0073 15.05297904928291"
      },
      "geometry": {
        "type": "Point",
        "coordinates": [
          -156.6115806422412,
          -51.14171964386632
        ]
      }
    },
    {
      "type": "Feature",
      "properties": {
        "norad_id": 33446,
        "name": "YAOGAN-4",
        "group": "resource",
        "lat": -36.985720460533564,
        "lon": 87.31971146152682,
        "alt_km": 631.8808988985065,
        "timestamp": "2025-12-09T04:51:47.164206+00:00",
        "meta_object_name": "YAOGAN-4",
        "meta_object_id": "2008-061A",
        "meta_epoch": "2025-12-08T19:47:11.729184",
        "meta_mean_motion": 14.82664885,
        "meta_eccentricity": 0.0013919,
        "meta_inclination": 97.9177,
        "meta_ra_of_asc_node": 272.962,
        "meta_arg_of_pericenter": 336.595,
        "meta_mean_anomaly": 23.4628,
        "meta_ephemeris_type": 0,
        "meta_classification_type": "U",
        "meta_norad_cat_id": 33446,
        "meta_element_set_no": 999,
        "meta_rev_at_epoch": 91745,
        "meta_bstar": 0.00038742,
        "meta_mean_motion_dot": 3.075e-05,
        "meta_mean_motion_ddot": 0,
        "tle_line1": "1 33446U 08061A   25342.82444131  .00003075  00000+0  38742-3 0  9999",
        "tle_line2": "2 33446  97.9177 272.9620 0013919 336.5950  23.4628 14.82664885917457"
      },
      "geometry": {
        "type": "Point",
        "coordinates": [
          87.31971146152682,
          -36.985720460533564
        ]
      }
    },
    {
      "type": "Feature",
      "properties": {
        "norad_id": 33492,
        "name": "GOSAT (IBUKI)",
        "group": "resource",
        "lat": 75.74711066306114,
        "lon": -54.15654523693065,
        "alt_km": 661.0691107884559,
        "timestamp": "2025-12-09T04:51:47.164217+00:00",
        "meta_object_name": "GOSAT (IBUKI)",
        "meta_object_id": "2009-002A",
        "meta_epoch": "2025-12-08T20:13:09.681024",
        "meta_mean_motion": 14.67544581,
        "meta_eccentricity": 9.69e-05,
        "meta_inclination": 98.0769,
        "meta_ra_of_asc_node": 91.5,
        "meta_arg_of_pericenter": 88.4296,
        "meta_mean_anomaly": 271.7019,
        "meta_ephemeris_type": 0,
        "meta_classification_type": "U",
        "meta_norad_cat_id": 33492,
        "meta_element_set_no": 999,
        "meta_rev_at_epoch": 90354,
        "meta_bstar": 0.00032614,
        "meta_mean_motion_dot": 1.802e-05,
        "meta_mean_motion_ddot": 0,
        "tle_line1": "1 33492U 09002A   25342.84247316  .00001802  00000+0  32614-3 0  9992",
        "tle_line2": "2 33492  98.0769  91.5000 0000969  88.4296 271.7019 14.67544581903541"
      },
      "geometry": {
        "type": "Point",
        "coordinates": [
          -54.15654523693065,
          75.74711066306114
        ]
      }
    },
    {
      "type": "Feature",
      "properties": {
        "norad_id": 35681,
        "name": "DEIMOS-1",
        "group": "resource",
        "lat": 81.09752776460267,
        "lon": 84.04350528018033,
        "alt_km": 635.9953306807429,
        "timestamp": "2025-12-09T04:51:47.164228+00:00",
        "meta_object_name": "DEIMOS-1",
        "meta_object_id": "2009-041A",
        "meta_epoch": "2025-12-08T20:20:09.487392",
        "meta_mean_motion": 14.74944311,
        "meta_eccentricity": 0.0002709,
        "meta_inclination": 97.7145,
        "meta_ra_of_asc_node": 143.6315,
        "meta_arg_of_pericenter": 85.7142,
        "meta_mean_anomaly": 274.4377,
        "meta_ephemeris_type": 0,
        "meta_classification_type": "U",
        "meta_norad_cat_id": 35681,
        "meta_element_set_no": 999,
        "meta_rev_at_epoch": 87882,
        "meta_bstar": 0.00019693,
        "meta_mean_motion_dot": 1.276e-05,
        "meta_mean_motion_ddot": 0,
        "tle_line1": "1 35681U 09041A   25342.84733203  .00001276  00000+0  19693-3 0  9999",
        "tle_line2": "2 35681  97.7145 143.6315 0002709  85.7142 274.4377 14.74944311878821"
      },
      "geometry": {
        "type": "Point",
        "coordinates": [
          84.04350528018033,
          81.09752776460267
        ]
      }
    },
    {
      "type": "Feature",
      "properties": {
        "norad_id": 35682,
        "name": "DUBAISAT-1",
        "group": "resource",
        "lat": 24.55636734220217,
        "lon": 110.26005230492666,
        "alt_km": 642.1580957531214,
        "timestamp": "2025-12-09T04:51:47.164239+00:00",
        "meta_object_name": "DUBAISAT-1",
        "meta_object_id": "2009-041B",
        "meta_epoch": "2025-12-08T18:58:47.084736",
        "meta_mean_motion": 14.74587775,
        "meta_eccentricity": 0.0009813,
        "meta_inclination": 97.979,
        "meta_ra_of_asc_node": 113.5289,
        "meta_arg_of_pericenter": 328.2281,
        "meta_mean_anomaly": 31.8335,
        "meta_ephemeris_type": 0,
        "meta_classification_type": "U",
        "meta_norad_cat_id": 35682,
        "meta_element_set_no": 999,
        "meta_rev_at_epoch": 87703,
        "meta_bstar": 0.00040358,
        "meta_mean_motion_dot": 2.641e-05,
        "meta_mean_motion_ddot": 0,
        "tle_line1": "1 35682U 09041B   25342.79082274  .00002641  00000+0  40358-3 0  9998",
        "tle_line2": "2 35682  97.9790 113.5289 0009813 328.2281  31.8335 14.74587775877036"
      },
      "geometry": {
        "type": "Point",
        "coordinates": [
          110.26005230492666,
          24.55636734220217
        ]
      }
    },
    {
      "type": "Feature",
      "properties": {
        "norad_id": 35931,
        "name": "OCEANSAT-2",
        "group": "resource",
        "lat": 73.55064453957921,
        "lon": -45.16071800910565,
        "alt_km": 876.9596449095434,
        "timestamp": "2025-12-09T04:51:47.164250+00:00",
        "meta_object_name": "OCEANSAT-2",
        "meta_object_id": "2009-051A",
        "meta_epoch": "2025-12-08T21:38:27.464928",
        "meta_mean_motion": 13.99625608,
        "meta_eccentricity": 0.0016368,
        "meta_inclination": 98.2225,
        "meta_ra_of_asc_node": 343.8916,
        "meta_arg_of_pericenter": 55.0438,
        "meta_mean_anomaly": 305.2263,
        "meta_ephemeris_type": 0,
        "meta_classification_type": "U",
        "meta_norad_cat_id": 35931,
        "meta_element_set_no": 999,
        "meta_rev_at_epoch": 85271,
        "meta_bstar": -6.2793e-05,
        "meta_mean_motion_dot": -1.29e-06,
        "meta_mean_motion_ddot": 0,
        "tle_line1": "1 35931U 09051A   25342.90170677 -.00000129  00000+0 -62793-4 0  9993",
        "tle_line2": "2 35931  98.2225 343.8916 0016368  55.0438 305.2263 13.99625608852717"
      },
      "geometry": {
        "type": "Point",
        "coordinates": [
          -45.16071800910565,
          73.55064453957921
        ]
      }
    },
    {
      "type": "Feature",
      "properties": {
        "norad_id": 35946,
        "name": "WORLDVIEW-2 (WV-2)",
        "group": "resource",
        "lat": 71.08213530593649,
        "lon": 28.543143975243833,
        "alt_km": 755.5417167312471,
        "timestamp": "2025-12-09T04:51:47.164260+00:00",
        "meta_object_name": "WORLDVIEW-2 (WV-2)",
        "meta_object_id": "2009-055A",
        "meta_epoch": "2025-12-08T18:30:10.130112",
        "meta_mean_motion": 14.37650366,
        "meta_eccentricity": 0.0005383,
        "meta_inclination": 98.4764,
        "meta_ra_of_asc_node": 53.9105,
        "meta_arg_of_pericenter": 76.4398,
        "meta_mean_anomaly": 283.7388,
        "meta_ephemeris_type": 0,
        "meta_classification_type": "U",
        "meta_norad_cat_id": 35946,
        "meta_element_set_no": 999,
        "meta_rev_at_epoch": 84828,
        "meta_bstar": 0.00014628,
        "meta_mean_motion_dot": 3.96e-06,
        "meta_mean_motion_ddot": 0,
        "tle_line1": "1 35946U 09055A   25342.77095058  .00000396  00000+0  14628-3 0  9994",
        "tle_line2": "2 35946  98.4764  53.9105 0005383  76.4398 283.7388 14.37650366848286"
      },
      "geometry": {
        "type": "Point",
        "coordinates": [
          28.543143975243833,
          71.08213530593649
        ]
      }
    }
  ]
}